[{"OBJECT_NAME":"STARLINK-5899","OBJECT_ID":"2023-037AM","EPOCH":"2025-08-09T21:22:19.176672","MEAN_MOTION":14.98325577,"ECCENTRICITY":0.0002983,"INCLINATION":69.999,"RA_OF_ASC_NODE":78.6433,"ARG_OF_PERICENTER":267.2998,"MEAN_ANOMALY":92.782,"EPHEMERIS_TYPE":0,"CLASSIFICATION_TYPE":"U","NORAD_CAT_ID":55949,"ELEMENT_SET_NO":999,"REV_AT_EPOCH":13308,"BSTAR":-5.4452e-6,"MEAN_MOTION_DOT":-1.58e-6,"MEAN_MOTION_DDOT":0},{"OBJECT_NAME":"STARLINK-5911","OBJECT_ID":"2023-037AN","EPOCH":"2025-08-09T21:04:17.057280","MEAN_MOTION":14.98328233,"ECCENTRICITY":0.0002971,"INCLINATION":69.9995,"RA_OF_ASC_NODE":78.5992,"ARG_OF_PERICENTER":269.4449,"MEAN_ANOMALY":90.6369,"EPHEMERIS_TYPE":0,"CLASSIFICATION_TYPE":"U","NORAD_CAT_ID":55950,"ELEMENT_SET_NO":999,"REV_AT_EPOCH":13308,"BSTAR":4.4884e-7,"MEAN_MOTION_DOT":-8.8e-7,"MEAN_MOTION_DDOT":0},{"OBJECT_NAME":"STARLINK-5908","OBJECT_ID":"2023-037AP","EPOCH":"2025-08-08T02:49:54.707520","MEAN_MOTION":14.97701553,"ECCENTRICITY":0.000288,"INCLINATION":69.9998,"RA_OF_ASC_NODE":102.7691,"ARG_OF_PERICENTER":240.7214,"MEAN_ANOMALY":119.3657,"EPHEMERIS_TYPE":0,"CLASSIFICATION_TYPE":"U","NORAD_CAT_ID":55951,"ELEMENT_SET_NO":999,"REV_AT_EPOCH":13199,"BSTAR":-0.006859,"MEAN_MOTION_DOT":-0.00079705,"MEAN_MOTION_DDOT":0},{"OBJECT_NAME":"STARLINK-5893","OBJECT_ID":"2023-037AQ","EPOCH":"2025-08-09T21:10:31.793088","MEAN_MOTION":14.98332601,"ECCENTRICITY":0.0002791,"INCLINATION":69.9994,"RA_OF_ASC_NODE":78.6157,"ARG_OF_PERICENTER":266.2165,"MEAN_ANOMALY":93.8675,"EPHEMERIS_TYPE":0,"CLASSIFICATION_TYPE":"U","NORAD_CAT_ID":55952,"ELEMENT_SET_NO":999,"REV_AT_EPOCH":13308,"BSTAR":8.1458e-5,"MEAN_MOTION_DOT":8.79e-6,"MEAN_MOTION_DDOT":0},{"OBJECT_NAME":"STARLINK-5892","OBJECT_ID":"2023-037AS","EPOCH":"2025-08-09T07:39:09.750240","MEAN_MOTION":14.98329944,"ECCENTRICITY":0.0002956,"INCLINATION":69.9993,"RA_OF_ASC_NODE":79.858,"ARG_OF_PERICENTER":272.6762,"MEAN_ANOMALY":87.4059,"EPHEMERIS_TYPE":0,"CLASSIFICATION_TYPE":"U","NORAD_CAT_ID":55954,"ELEMENT_SET_NO":999,"REV_AT_EPOCH":13266,"BSTAR":0.00019847,"MEAN_MOTION_DOT":2.276e-5,"MEAN_MOTION_DDOT":0},{"OBJECT_NAME":"STARLINK-5878","OBJECT_ID":"2023-037AT","EPOCH":"2025-08-09T08:03:11.173536","MEAN_MOTION":14.98330575,"ECCENTRICITY":0.0002976,"INCLINATION":69.9998,"RA_OF_ASC_NODE":79.9171,"ARG_OF_PERICENTER":269.0058,"MEAN_ANOMALY":91.076,"EPHEMERIS_TYPE":0,"CLASSIFICATION_TYPE":"U","NORAD_CAT_ID":55955,"ELEMENT_SET_NO":999,"REV_AT_EPOCH":13266,"BSTAR":3.5148e-5,"MEAN_MOTION_DOT":3.26e-6,"MEAN_MOTION_DDOT":0},{"OBJECT_NAME":"STARLINK-5883","OBJECT_ID":"2023-037AU","EPOCH":"2025-08-09T07:27:07.390080","MEAN_MOTION":14.9833084,"ECCENTRICITY":0.0002861,"INCLINATION":69.9996,"RA_OF_ASC_NODE":79.8283,"ARG_OF_PERICENTER":270.6502,"MEAN_ANOMALY":89.4329,"EPHEMERIS_TYPE":0,"CLASSIFICATION_TYPE":"U","NORAD_CAT_ID":55956,"ELEMENT_SET_NO":999,"REV_AT_EPOCH":13266,"BSTAR":1.6757e-5,"MEAN_MOTION_DOT":1.07e-6,"MEAN_MOTION_DDOT":0},{"OBJECT_NAME":"STARLINK-5884","OBJECT_ID":"2023-037AV","EPOCH":"2025-08-09T14:00:01.999872","MEAN_MOTION":14.98330578,"ECCENTRICITY":0.0002994,"INCLINATION":70.001,"RA_OF_ASC_NODE":79.3166,"ARG_OF_PERICENTER":264.5863,"MEAN_ANOMALY":329.2907,"EPHEMERIS_TYPE":0,"CLASSIFICATION_TYPE":"U","NORAD_CAT_ID":55957,"ELEMENT_SET_NO":999,"REV_AT_EPOCH":581,"BSTAR":0.0024659,"MEAN_MOTION_DOT":0.00029454,"MEAN_MOTION_DDOT":0},{"OBJECT_NAME":"STARLINK-5928","OBJECT_ID":"2023-037AW","EPOCH":"2025-08-09T20:46:16.556160","MEAN_MOTION":14.98322177,"ECCENTRICITY":0.0003037,"INCLINATION":69.9996,"RA_OF_ASC_NODE":78.5565,"ARG_OF_PERICENTER":267.4819,"MEAN_ANOMALY":92.5993,"EPHEMERIS_TYPE":0,"CLASSIFICATION_TYPE":"U","NORAD_CAT_ID":55958,"ELEMENT_SET_NO":999,"REV_AT_EPOCH":13308,"BSTAR":0.00015497,"MEAN_MOTION_DOT":1.756e-5,"MEAN_MOTION_DDOT":0},{"OBJECT_NAME":"STARLINK-5929","OBJECT_ID":"2023-037AX","EPOCH":"2025-08-09T20:40:14.334528","MEAN_MOTION":14.98330702,"ECCENTRICITY":0.0003018,"INCLINATION":69.9996,"RA_OF_ASC_NODE":78.5417,"ARG_OF_PERICENTER":269.6636,"MEAN_ANOMALY":90.4177,"EPHEMERIS_TYPE":0,"CLASSIFICATION_TYPE":"U","NORAD_CAT_ID":55959,"ELEMENT_SET_NO":999,"REV_AT_EPOCH":13308,"BSTAR":8.3516e-5,"MEAN_MOTION_DOT":9.04e-6,"MEAN_MOTION_DDOT":0},{"OBJECT_NAME":"STARLINK-5938","OBJECT_ID":"2023-037AY","EPOCH":"2025-08-09T20:58:28.103232","MEAN_MOTION":14.9833339,"ECCENTRICITY":0.0002531,"INCLINATION":70.0001,"RA_OF_ASC_NODE":78.5679,"ARG_OF_PERICENTER":272.7819,"MEAN_ANOMALY":87.305,"EPHEMERIS_TYPE":0,"CLASSIFICATION_TYPE":"U","NORAD_CAT_ID":55960,"ELEMENT_SET_NO":999,"REV_AT_EPOCH":13308,"BSTAR":-0.00012083,"MEAN_MOTION_DOT":-1.534e-5,"MEAN_MOTION_DDOT":0},{"OBJECT_NAME":"STARLINK-5933","OBJECT_ID":"2023-037AZ","EPOCH":"2025-08-09T07:33:07.787808","MEAN_MOTION":14.98331864,"ECCENTRICITY":0.0002909,"INCLINATION":69.9997,"RA_OF_ASC_NODE":79.843,"ARG_OF_PERICENTER":270.6811,"MEAN_ANOMALY":89.4015,"EPHEMERIS_TYPE":0,"CLASSIFICATION_TYPE":"U","NORAD_CAT_ID":55961,"ELEMENT_SET_NO":999,"REV_AT_EPOCH":13266,"BSTAR":3.8229e-5,"MEAN_MOTION_DOT":3.63e-6,"MEAN_MOTION_DDOT":0},{"OBJECT_NAME":"STARLINK-5906","OBJECT_ID":"2023-037BA","EPOCH":"2025-08-09T00:26:33.470880","MEAN_MOTION":14.98334611,"ECCENTRICITY":0.0002999,"INCLINATION":69.9995,"RA_OF_ASC_NODE":80.8111,"ARG_OF_PERICENTER":271.637,"MEAN_ANOMALY":88.4445,"EPHEMERIS_TYPE":0,"CLASSIFICATION_TYPE":"U","NORAD_CAT_ID":55962,"ELEMENT_SET_NO":999,"REV_AT_EPOCH":13261,"BSTAR":8.1072e-5,"MEAN_MOTION_DOT":8.75e-6,"MEAN_MOTION_DDOT":0},{"OBJECT_NAME":"STARLINK-5924","OBJECT_ID":"2023-037BB","EPOCH":"2025-08-09T07:45:10.732896","MEAN_MOTION":14.98335409,"ECCENTRICITY":0.0002775,"INCLINATION":69.9996,"RA_OF_ASC_NODE":79.8739,"ARG_OF_PERICENTER":268.2973,"MEAN_ANOMALY":91.7868,"EPHEMERIS_TYPE":0,"CLASSIFICATION_TYPE":"U","NORAD_CAT_ID":55963,"ELEMENT_SET_NO":999,"REV_AT_EPOCH":13266,"BSTAR":7.5919e-5,"MEAN_MOTION_DOT":8.13e-6,"MEAN_MOTION_DDOT":0},{"OBJECT_NAME":"STARLINK-5895","OBJECT_ID":"2023-037BC","EPOCH":"2025-08-09T08:32:08.967840","MEAN_MOTION":14.98852558,"ECCENTRICITY":0.0002589,"INCLINATION":70.0008,"RA_OF_ASC_NODE":79.9176,"ARG_OF_PERICENTER":238.1357,"MEAN_ANOMALY":121.9551,"EPHEMERIS_TYPE":0,"CLASSIFICATION_TYPE":"U","NORAD_CAT_ID":55964,"ELEMENT_SET_NO":999,"REV_AT_EPOCH":13266,"BSTAR":0.0011127,"MEAN_MOTION_DOT":0.00013389,"MEAN_MOTION_DDOT":0},{"OBJECT_NAME":"STARLINK-5894","OBJECT_ID":"2023-037BD","EPOCH":"2025-08-09T07:21:06.459264","MEAN_MOTION":14.98332393,"ECCENTRICITY":0.0002967,"INCLINATION":69.9995,"RA_OF_ASC_NODE":79.813,"ARG_OF_PERICENTER":268.6791,"MEAN_ANOMALY":91.4028,"EPHEMERIS_TYPE":0,"CLASSIFICATION_TYPE":"U","NORAD_CAT_ID":55965,"ELEMENT_SET_NO":999,"REV_AT_EPOCH":13266,"BSTAR":4.3057e-5,"MEAN_MOTION_DOT":4.21e-6,"MEAN_MOTION_DDOT":0},{"OBJECT_NAME":"STARLINK-5905","OBJECT_ID":"2023-042A","EPOCH":"2025-08-09T11:24:14.325120","MEAN_MOTION":15.02541936,"ECCENTRICITY":0.0001113,"INCLINATION":43.0036,"RA_OF_ASC_NODE":129.5858,"ARG_OF_PERICENTER":262.0583,"MEAN_ANOMALY":98.0133,"EPHEMERIS_TYPE":0,"CLASSIFICATION_TYPE":"U","NORAD_CAT_ID":55986,"ELEMENT_SET_NO":999,"REV_AT_EPOCH":13180,"BSTAR":0.00011268,"MEAN_MOTION_DOT":1.319e-5,"MEAN_MOTION_DDOT":0},{"OBJECT_NAME":"STARLINK-5915","OBJECT_ID":"2023-042B","EPOCH":"2025-08-09T10:58:40.629216","MEAN_MOTION":15.02536833,"ECCENTRICITY":0.0001076,"INCLINATION":43.0027,"RA_OF_ASC_NODE":129.454,"ARG_OF_PERICENTER":270.3448,"MEAN_ANOMALY":89.7271,"EPHEMERIS_TYPE":0,"CLASSIFICATION_TYPE":"U","NORAD_CAT_ID":55987,"ELEMENT_SET_NO":999,"REV_AT_EPOCH":13098,"BSTAR":1.2443e-5,"MEAN_MOTION_DOT":-3.5e-7,"MEAN_MOTION_DDOT":0},{"OBJECT_NAME":"STARLINK-5916","OBJECT_ID":"2023-042C","EPOCH":"2025-08-09T04:05:23.778240","MEAN_MOTION":15.02536482,"ECCENTRICITY":0.0001018,"INCLINATION":43.0035,"RA_OF_ASC_NODE":130.7511,"ARG_OF_PERICENTER":263.3275,"MEAN_ANOMALY":96.7452,"EPHEMERIS_TYPE":0,"CLASSIFICATION_TYPE":"U","NORAD_CAT_ID":55988,"ELEMENT_SET_NO":999,"REV_AT_EPOCH":13094,"BSTAR":8.3906e-6,"MEAN_MOTION_DOT":-9.0e-7,"MEAN_MOTION_DDOT":0},{"OBJECT_NAME":"STARLINK-5947","OBJECT_ID":"2023-042D","EPOCH":"2025-08-09T11:08:15.862272","MEAN_MOTION":15.0253787,"ECCENTRICITY":0.0001046,"INCLINATION":43.0033,"RA_OF_ASC_NODE":129.5019,"ARG_OF_PERICENTER":265.0044,"MEAN_ANOMALY":95.0679,"EPHEMERIS_TYPE":0,"CLASSIFICATION_TYPE":"U","NORAD_CAT_ID":55989,"ELEMENT_SET_NO":999,"REV_AT_EPOCH":13098,"BSTAR":5.7104e-5,"MEAN_MOTION_DOT":5.68e-6,"MEAN_MOTION_DDOT":0},{"OBJECT_NAME":"STARLINK-5946","OBJECT_ID":"2023-042E","EPOCH":"2025-08-09T11:19:27.682752","MEAN_MOTION":15.0254297,"ECCENTRICITY":0.0001265,"INCLINATION":43.0032,"RA_OF_ASC_NODE":129.5611,"ARG_OF_PERICENTER":262.1365,"MEAN_ANOMALY":97.9334,"EPHEMERIS_TYPE":0,"CLASSIFICATION_TYPE":"U","NORAD_CAT_ID":55990,"ELEMENT_SET_NO":999,"REV_AT_EPOCH":13098,"BSTAR":-2.97e-5,"MEAN_MOTION_DOT":-6.05e-6,"MEAN_MOTION_DDOT":0},{"OBJECT_NAME":"STARLINK-5948","OBJECT_ID":"2023-042F","EPOCH":"2025-08-09T10:45:53.214048","MEAN_MOTION":15.02537139,"ECCENTRICITY":9.47e-5,"INCLINATION":43.0029,"RA_OF_ASC_NODE":129.3831,"ARG_OF_PERICENTER":258.4167,"MEAN_ANOMALY":101.6569,"EPHEMERIS_TYPE":0,"CLASSIFICATION_TYPE":"U","NORAD_CAT_ID":55991,"ELEMENT_SET_NO":999,"REV_AT_EPOCH":13098,"BSTAR":4.2594e-5,"MEAN_MOTION_DOT":3.72e-6,"MEAN_MOTION_DDOT":0},{"OBJECT_NAME":"STARLINK-5969","OBJECT_ID":"2023-042H","EPOCH":"2025-08-09T11:13:03.349632","MEAN_MOTION":15.02539201,"ECCENTRICITY":0.0001123,"INCLINATION":43.0033,"RA_OF_ASC_NODE":129.5289,"ARG_OF_PERICENTER":257.4418,"MEAN_ANOMALY":102.6299,"EPHEMERIS_TYPE":0,"CLASSIFICATION_TYPE":"U","NORAD_CAT_ID":55993,"ELEMENT_SET_NO":999,"REV_AT_EPOCH":13098,"BSTAR":5.8051e-5,"MEAN_MOTION_DOT":5.81e-6,"MEAN_MOTION_DDOT":0}]
